POLYITAN-1              
1 40042U 14033AJ  26199.04085337  .00010956  00000+0  33245-3 0  9998
2 40042  98.0931 228.2449 0007650  55.8959 304.3007 15.34281566658324
TIGRISAT                
1 40043U 14033AK  26199.37617711  .00000693  00000+0  85549-4 0  9994
2 40043  97.7869 348.6813 0048362 333.7651  26.1115 14.85254459650254
AEROCUBE 6A             
1 40045U 14033AM  26199.88056778  .00003385  00000+0  28532-3 0  9991
2 40045  97.7263   6.5012 0036129 268.2048  91.5036 14.98367819651365
AEROCUBE 6B             
1 40046U 14033AN  26198.98476593  .00002592  00000+0  21135-3 0  9994
2 40046  97.7206   5.4660 0038128 260.2360  99.4557 14.99812735651379
CANX-4                  
1 40055U 14034C   26199.90006317  .00000388  00000+0  57095-4 0  9997
2 40055  98.3078  76.3714 0011376 269.5009  90.4899 14.81314671649226
CANX-5                  
1 40056U 14034D   26199.62793568  .00000363  00000+0  53855-4 0  9991
2 40056  98.3080  76.1348 0011373 270.7559  89.2349 14.81331659639996
UKUBE-1                 
1 40074U 14037F   26199.30162791  .00004593  00000+0  25748-3 0  9995
2 40074  98.4246 205.8544 0003190  82.4039 277.7553 15.13977056653269
BRITE-PL2 (HEWELIUSZ)   
1 40119U 14049B   26199.83808339  .00000663  00000+0  66530-4 0  9990
2 40119  97.9121 312.0880 0013981  10.3613 349.7893 14.94691922646178
AEROCUBE 5C             
1 40965U 15058B   26199.88538938  .00001805  00000+0  16680-3 0  9999
2 40965  64.7650 163.9663 0132593  51.0528 310.2313 14.91590552370387
AEROCUBE 7              
1 40966U 15058C   26199.58992797  .00002608  00000+0  21398-3 0  9998
2 40966  64.7617 146.4389 0122297  49.4620 311.7067 14.95932772370656
FOX-1A (AO-85)          
1 40967U 15058D   26199.67501655  .00001565  00000+0  14854-3 0  9998
2 40967  64.7726 181.1175 0132656  44.4905 316.6768 14.91100292118267
SINOD-D 1               
1 40968U 15058E   26199.89839050  .00002864  00000+0  23286-3 0  9998
2 40968  64.7740 159.5887 0121372  40.7614 320.2502 14.96109796121402
SNAP-3 ALICE            
1 40970U 15058G   26199.82244594  .00090133  00000+0  79101-3 0  9990
2 40970  64.7500 353.9098 0025389 346.0004  14.0439 15.67917417121839
LMRST-SAT               
1 40971U 15058H   26199.37007315  .00001603  00000+0  15279-3 0  9999
2 40971  64.7733 178.4631 0134159  46.6043 314.6146 14.90714583118208
SNAP-3 EDDIE            
1 40972U 15058J   26199.78675617  .00103222  00000+0  85022-3 0  9994
2 40972  64.7412 344.5144 0026497 348.5687  11.4857 15.69367196123973
PROPCUBE 3              
1 40973U 15058K   26199.86401229  .00002408  00000+0  20489-3 0  9990
2 40973  64.7678 153.5509 0126061  47.6136 313.5564 14.94434240119535
BISONSAT                
1 40974U 15058L   26199.88251591  .00007405  00000+0  35149-3 0  9999
2 40974  64.7579  71.1001 0082454  34.2994 326.3415 15.16990131120427
SNAP-3 JIMI             
1 40975U 15058M   26199.87240736  .00003948  00000+0  27264-3 0  9995
2 40975  64.7646 119.4954 0108128  42.9160 318.0330 15.02640195118983
PROPCUBE 1 (FLORA)      
1 40976U 15058N   26199.28652734  .00001347  00000+0  13604-3 0  9990
2 40976  64.7717 198.8406 0132710  48.9109 312.3373 14.89337354120890
SINOD-D 3               
1 40977U 15058P   26199.90077096  .00002396  00000+0  20746-3 0  9992
2 40977  64.7710 176.7723 0121366  45.7129 315.3862 14.94191999119492
RAVAN                   
1 41849U 16067B   26199.67864382  .00034061  00000+0  45991-3 0  9991
2 41849  97.9829  92.9607 0002704 200.6986 159.4159 15.57711993532595
CELTEE 1                
1 41850U 16067C   26199.61188932  .00002449  00000+0  11748-3 0  9995
2 41850  98.0628  68.3217 0002402 105.5139 254.6359 15.19959377530651
OPTICUBE 04             
1 41851U 16067D   26199.09751852  .00000928  00000+0  61749-4 0  9992
2 41851  98.0673  52.9918 0015955  18.5232 341.6573 15.09778428529831
AEROCUBE 8D             
1 41852U 16067E   26199.59324212  .00003806  00000+0  15676-3 0  9999
2 41852  98.0633  72.1560 0004388  48.3639 311.7971 15.24796864530850
AEROCUBE 8C             
1 41853U 16067F   26199.87547863  .00003792  00000+0  15503-3 0  9993
2 41853  98.0510  69.6471 0003888 326.6849  33.4141 15.25053308530897
CORVUS BC2              
1 42846U 17042X   26199.87991013  .00001244  00000+0  88186-4 0  9998
2 42846  97.4094   0.0065 0013068  10.4806 349.6692 15.06466156491831
CORVUS BC1              
1 42847U 17042Y   26199.87104031  .00001731  00000+0  12069-3 0  9992
2 42847  97.4127   0.8326 0011269 346.8616  13.2316 15.06631229491868
MAKERSAT 0              
1 43016U 17073D   26199.58482991  .00010616  00000+0  27996-3 0  9994
2 43016  97.4572  82.3624 0105621 160.2361 200.3022 15.33085965471274
SIRION PATHFINDER-2     
1 43759U 18099B   26199.69355631  .00002239  00000+0  12403-3 0  9998
2 43759  97.4233 248.0043 0008841 179.1290 180.9959 15.14792549417391
CORVUS BC4              
1 43767U 18099K   26199.67696157  .00002026  00000+0  11926-3 0  9999
2 43767  97.4047 241.7370 0006671 245.7505 114.3030 15.12715710417163
